[{"OBJECT_NAME":"BRO-11","OBJECT_ID":"2023-174J","EPOCH":"2026-03-09T23:01:09.890400","MEAN_MOTION":15.26267731,"ECCENTRICITY":0.00104518,"INCLINATION":97.3961,"RA_OF_ASC_NODE":146.7679,"ARG_OF_PERICENTER":189.9892,"MEAN_ANOMALY":170.1141,"EPHEMERIS_TYPE":0,"CLASSIFICATION_TYPE":"U","NORAD_CAT_ID":58264,"ELEMENT_SET_NO":999,"REV_AT_EPOCH":12961,"BSTAR":0.00032296323,"MEAN_MOTION_DOT":8.313e-5,"MEAN_MOTION_DDOT":0},{"OBJECT_NAME":"STARLINK-31809","OBJECT_ID":"2024-090P","EPOCH":"2026-03-09T07:33:02.274624","MEAN_MOTION":15.27574983,"ECCENTRICITY":0.00010799,"INCLINATION":43.0002,"RA_OF_ASC_NODE":178.6175,"ARG_OF_PERICENTER":298.3904,"MEAN_ANOMALY":61.6839,"EPHEMERIS_TYPE":0,"CLASSIFICATION_TYPE":"U","NORAD_CAT_ID":59743,"ELEMENT_SET_NO":999,"REV_AT_EPOCH":10346,"BSTAR":-2.2778375e-5,"MEAN_MOTION_DOT":-8.89e-6,"MEAN_MOTION_DDOT":0}]
